ONEWEB-0258             
1 48976U 21060K   25303.66952850  .00000064  00000+0  13424-3 0  9993
2 48976  87.8978 274.5056 0002000  83.0023 277.1335 13.16595798209395
ONEWEB-0259             
1 48977U 21060L   25303.20721702  .00000176  00000+0  42673-3 0  9996
2 48977  87.8992 274.5879 0002067  88.3270 271.8098 13.16596013209365
ONEWEB-0260             
1 48978U 21060M   25303.19851730 -.00000012  00000+0 -66064-4 0  9992
2 48978  87.8979 274.6086 0001481  88.6227 271.5074 13.16594448209345
ONEWEB-0261             
1 48979U 21060N   25303.85240106  .00000055  00000+0  10968-3 0  9991
2 48979  87.8982 274.4798 0002041  97.0521 263.0842 13.16593190209489
ONEWEB-0262             
1 48980U 21060P   25302.92063949  .00000104  00000+0  23956-3 0  9994
2 48980  87.8992 274.6350 0002244  86.0388 274.0999 13.16595601209329
ONEWEB-0263             
1 48981U 21060Q   25303.86427547  .00000009  00000+0 -10541-4 0  9999
2 48981  87.8982 274.4641 0002137  94.6933 265.4442 13.16595297209410
ONEWEB-0264             
1 48982U 21060R   25302.98951000  .00000015  00000+0  54062-5 0  9991
2 48982  87.8980 274.6431 0001798  93.7103 266.4234 13.16591322209302
ONEWEB-0266             
1 48984U 21060T   25303.84686205  .00000105  00000+0  24165-3 0  9990
2 48984  87.8993 274.4537 0002061  81.1302 279.0062 13.16595556209402
